STARLINK-31625          
1 59458U 24068D   26068.30920026 -.00002133  00000+0 -68042-4 0  9999
2 59458  43.0049  36.7415 0001459 268.0898  91.9787 15.27570468108464
FLOCK 4G-5              
1 62663U 25009BG  26068.45638436  .00011278  00000+0  40688-3 0  9997
2 62663  97.4058 151.2478 0002094 314.5072  45.5996 15.28679529 63699
