[{"OBJECT_NAME":"STARLINK-31625","OBJECT_ID":"2024-068D","EPOCH":"2026-03-09T07:25:14.902464","MEAN_MOTION":15.27570468,"ECCENTRICITY":0.00014596,"INCLINATION":43.0049,"RA_OF_ASC_NODE":36.7415,"ARG_OF_PERICENTER":268.0898,"MEAN_ANOMALY":91.9787,"EPHEMERIS_TYPE":0,"CLASSIFICATION_TYPE":"U","NORAD_CAT_ID":59458,"ELEMENT_SET_NO":999,"REV_AT_EPOCH":10846,"BSTAR":-6.8041542e-5,"MEAN_MOTION_DOT":-2.133e-5,"MEAN_MOTION_DDOT":0},{"OBJECT_NAME":"FLOCK 4G-5","OBJECT_ID":"2025-009BG","EPOCH":"2026-03-09T10:57:11.608704","MEAN_MOTION":15.28679529,"ECCENTRICITY":0.00020946,"INCLINATION":97.4058,"RA_OF_ASC_NODE":151.2478,"ARG_OF_PERICENTER":314.5072,"MEAN_ANOMALY":45.5996,"EPHEMERIS_TYPE":0,"CLASSIFICATION_TYPE":"U","NORAD_CAT_ID":62663,"ELEMENT_SET_NO":999,"REV_AT_EPOCH":6369,"BSTAR":0.00040688068,"MEAN_MOTION_DOT":0.00011278,"MEAN_MOTION_DDOT":0}]
